E-ST@R-II               
1 41459U 16025D   22135.88845518  .00010437  00000+0  45838-3 0  9992
2 41459  98.1821 298.6518 0146964  20.3986 340.3051 15.12846773332571
AAUSAT 4                
1 41460U 16025E   22135.92951173  .00015460  00000+0  60955-3 0  9992
2 41460  98.1766 304.6111 0128127 357.1701   2.9164 15.18313995333001
BEESAT-4                
1 41619U 16040W   22135.88676243  .00020051  00000+0  68828-3 0  9991
2 41619  97.2195 187.4012 0008796 221.8909 138.1660 15.30135859315745
RAVAN                   
1 41849U 16067B   22135.90526273  .00005448  00000+0  43612-3 0  9992
2 41849  97.9960 271.9535 0017774  84.8176 275.5074 15.00490295301111
CELTEE 1                
1 41850U 16067C   22135.85849111  .00003539  00000+0  30222-3 0  9999
2 41850  97.9947 267.0847 0010498  86.0141 274.2280 14.98314345300876
OPTICUBE 04             
1 41851U 16067D   22135.82474725  .00001986  00000+0  17481-3 0  9998
2 41851  97.9904 266.1445 0009756  91.2461 268.9878 14.97674105300822
AEROCUBE 8D             
1 41852U 16067E   22135.91251157  .00004748  00000+0  40490-3 0  9996
2 41852  97.9908 266.2122 0011366  90.7466 269.5058 14.98182136300825
AEROCUBE 8C             
1 41853U 16067F   22135.89292993  .00004032  00000+0  34509-3 0  9997
2 41853  97.9886 266.0206 0010691  93.0675 267.1770 14.98142677300810
PROMETHEUS 2-1          
1 41854U 16067G   22135.88573230  .00006378  00000+0  52840-3 0  9996
2 41854  97.9888 267.0197 0009482  91.4912 268.7396 14.99180939300865
PROMETHEUS 2-3          
1 41855U 16067H   22135.87880073  .00005970  00000+0  49462-3 0  9995
2 41855  97.9898 267.0901 0009581  87.1252 273.1067 14.99209625300868
INS-1B                  
1 41954U 17008G   22135.89341732  .00018391  00000+0  62301-3 0  9995
2 41954  97.2602 196.4659 0007084   4.7517 355.3790 15.30596879291764
BGUSAT                  
1 41999U 17008BD  22135.91550952  .00041745  00000+0  10859-2 0  9992
2 41999  97.2831 206.4745 0004211   1.3959 358.7298 15.38787838291638
DIDO-2                  
1 42000U 17008BE  22135.68753004  .00010337  00000+0  37966-3 0  9995
2 42000  97.2590 195.8119 0007918  28.2327 331.9341 15.28080351291068
PEASSS                  
1 42015U 17008BV  22135.92079581  .00016727  00000+0  56301-3 0  9992
2 42015  97.2655 199.6748 0005458  28.3887 331.7651 15.30834883291797
AL-FARABI 1             
1 42016U 17008BW  22135.73843911  .00023208  00000+0  72003-3 0  9997
2 42016  97.2722 202.3377 0004694  24.9063 335.2405 15.33389931292038
NAYIF-1 (EO-88)         
1 42017U 17008BX  22135.75615097  .00023802  00000+0  73565-3 0  9996
2 42017  97.2710 202.3644 0004699  23.5977 336.5480 15.33506313292062
UCLSAT                  
1 42765U 17036A   22135.87199416  .00018274  00000+0  65091-3 0  9994
2 42765  97.2004 179.5673 0011456  84.9900 275.2647 15.28920733272872
LITUANICASAT-2          
1 42768U 17036D   22135.86872706  .00036124  00000+0  11001-2 0  9991
2 42768  97.2087 181.9580 0012375  72.6803 287.5792 15.33824907272258
AALTO-1                 
1 42775U 17036L   22135.89667329  .00010556  00000+0  42267-3 0  9995
2 42775  97.2001 174.8632 0014543  84.3698 275.9198 15.25132366271816
URSA MAIOR              
1 42776U 17036M   22135.82332477  .00011443  00000+0  45118-3 0  9996
2 42776  97.2015 175.4890 0014236  83.9733 276.3128 15.25631724271831
COMPASS 2               
1 42777U 17036N   22135.63903077  .00025860  00000+0  85419-3 0  9992
2 42777  97.2074 181.2488 0011439  76.1265 284.1249 15.31304133272123
DIAMOND RED             
1 42783U 17036U   22135.62534285  .00012886  00000+0  48966-3 0  9999
2 42783  97.2022 177.5588 0012594  89.3485 270.9198 15.26851347271937
PEGASUS                 
1 42784U 17036V   22135.64470608  .00015888  00000+0  58031-3 0  9999
2 42784  97.2019 178.6495 0012253  87.6926 272.5717 15.28117806272007
DIAMOND GREEN           
1 42785U 17036W   22135.88618857  .00009349  00000+0  35604-3 0  9992
2 42785  97.2026 177.8734 0012565  89.6338 270.6341 15.26861901272044
DIAMOND BLUE            
1 42786U 17036X   22135.62266586  .00013696  00000+0  51967-3 0  9993
2 42786  97.2029 177.6123 0012483  90.7152 269.5518 15.26889209272004
NUDTSAT                 
1 42787U 17036Y   22135.66351838  .00019527  00000+0  62662-3 0  9996
2 42787  97.2063 182.5259 0010759  77.3325 282.9120 15.32297734272073
SUCHAI                  
1 42788U 17036Z   22135.61149842  .00020651  00000+0  71794-3 0  9998
2 42788  97.2029 180.1620 0011459  84.3719 275.8828 15.29689983272168
SKCUBE                  
1 42789U 17036AA  22135.92023465  .00017966  00000+0  63748-3 0  9990
2 42789  97.2023 179.9645 0011553  84.3630 275.8928 15.29049719272105
VZLUSAT-1               
1 42790U 17036AB  22135.92963076  .00027838  00000+0  89334-3 0  9991
2 42790  97.2052 182.7602 0010184  79.5107 280.7283 15.32231876272265
ROBUSTA-1B              
1 42792U 17036AD  22135.62450329  .00018510  00000+0  64771-3 0  9997
2 42792  97.2023 180.2163 0011096  85.2637 274.9870 15.29503042272108
CICERO 6                
1 42793U 17036AE  22135.84061735  .00011383  00000+0  43356-3 0  9998
2 42793  97.2000 178.3301 0011073  89.0343 271.2165 15.26821739272095
CORVUS BC2              
1 42846U 17042X   22135.84046873  .00001789  00000+0  17785-3 0  9996
2 42846  97.4271 354.9904 0011074 103.8310 256.4143 14.92798359263417
CORVUS BC1              
1 42847U 17042Y   22135.92337128  .00001604  00000+0  15961-3 0  9992
2 42847  97.4274 355.3684 0010720 102.5861 257.6558 14.92904416263433
MIRATA                  
1 43015U 17073C   22135.71525532  .00009536  00000+0  70068-3 0  9990
2 43015  97.6778  32.2407 0238590 288.9172  68.6317 14.83593260242416
MAKERSAT 0              
1 43016U 17073D   22135.64309156  .00006948  00000+0  52137-3 0  9996
2 43016  97.6798  31.8226 0245053 293.1729  64.3841 14.82040457242331
AEROCUBE 7B (OCSD B)    
1 43042U 17071F   22135.62274294  .00142686  00000+0  10632-2 0  9998
2 43042  51.6320 212.0144 0006629 359.2332   0.8655 15.71784501250512
AEROCUBE 7C (OCSD C)    
1 43043U 17071G   22134.79199236  .00118554  00000+0  95225-3 0  9997
2 43043  51.6318 217.6857 0005866 357.0879   3.0083 15.70086764250331
ASGARDIA 1              
1 43049U 17071N   22135.91431250  .00105043  00000+0  94944-3 0  9999
2 43049  51.6322 213.3755 0005069 350.3214   9.7684 15.67270047250498
PROPCUBE 2 (FAUNA)      
1 43052U 17071R   22135.66966259  .00146778  00000+0  10474-2 0  9992
2 43052  51.6277 206.4182 0006813 353.6534   6.4377 15.72788721250556
CORVUS BC3              
1 43118U 18004H   22135.73780620  .00011899  00000+0  45307-3 0  9995
2 43118  97.3640 208.8740 0010940 116.6876 243.5485 15.26828888241224
MICROMAS-2A             
1 43131U 18004W   22135.77031384  .00034977  00000+0  10401-2 0  9998
2 43131  97.3768 215.0041 0008055 110.8773 249.3334 15.34631399241562
SPACEBEE-4              
1 43139U 18004AE  22135.74703026  .00060355  00000+0  14394-2 0  9996
2 43139  97.3864 219.4670 0006251 112.4005 247.7904 15.41334368241801
SPACEBEE-3              
1 43140U 18004AF  22135.87973793  .00100431  00000+0  18462-2 0  9992
2 43140  97.3903 222.8751 0003985 122.9733 237.1901 15.48848510242010
SPACEBEE-2              
1 43141U 18004AG  22135.82357205  .00125567  00000+0  20476-2 0  9997
2 43141  97.3922 224.1038 0003275 135.7716 224.3799 15.52154113242073
SPACEBEE-1              
1 43142U 18004AH  22135.86088035  .00170922  00000+0  23360-2 0  9994
2 43142  97.3926 225.5531 0001956 170.3231 189.8062 15.56856967242159
CICERO 7                
1 43143U 18004AJ  22135.69845406  .00022089  00000+0  70385-3 0  9999
2 43143  97.3746 214.6002 0007327 116.1378 244.0619 15.32533281241550
GOMX-4B                 
1 43196U 18015E   22135.84508111  .00010153  00000+0  38860-3 0  9996
2 43196  97.5289 274.9421 0017927 167.8202 192.3474 15.26611949238182
GOMX-4A                 
1 43197U 18015F   22135.80479317  .00009176  00000+0  33469-3 0  9991
2 43197  97.5269 275.6149 0017812 168.2286 330.1731 15.28236332238231
AEROCUBE 12A            
1 43556U 18046C   22135.83376470  .00026266  00000+0  70056-3 0  9995
2 43556  51.6381 342.7428 0006333 271.5359  88.4899 15.37940511214296
AEROCUBE 12B            
1 43557U 18046D   22135.86298586  .00021150  00000+0  59668-3 0  9993
2 43557  51.6390 346.6232 0006511 268.8505  91.1732 15.36325197214195
SURFSAT                 
1 43614U 18070B   22135.93163399  .00048440  00000+0  78236-3 0  9998
2 43614  93.0300  84.9605 0014316 131.6667 228.5822 15.52597078206019
CP7 (DAVE)              
1 43615U 18070C   22135.85308531  .00044003  00000+0  73562-3 0  9997
2 43615  93.0319  84.8050 0014292 133.6541 226.5908 15.51649677205978
ELFIN-B                 
1 43616U 18070D   22135.83222489  .00093002  00000+0  10545-2 0  9997
2 43616  93.0215  85.7759 0014292 124.5569 235.7049 15.61958357206258
ELFIN-A                 
1 43617U 18070E   22135.87688652  .00102163  00000+0  10848-2 0  9995
2 43617  93.0283  87.0708 0013923 120.7003 239.5638 15.63625185206308
CUBEBEL-1 (BSUSAT-1)    
1 43666U 18083E   22135.93585575  .00009873  00000+0  42671-3 0  9994
2 43666  97.4229 164.9972 0015276  87.9956 358.5289 15.22569900196536
CICERO 10               
1 43690U 18088A   22135.54996650  .00012149  00000+0  49505-3 0  9996
2 43690  85.0355 338.1794 0011296 268.6745  91.3204 15.24281818194724
IRVINE01                
1 43693U 18088D   22135.84113198  .00044554  00000+0  12880-2 0  9990
2 43693  85.0283 332.9269 0011669 224.5368 135.4944 15.35380445195216
PROXIMA I               
1 43694U 18088E   22135.80621624  .00011370  00000+0  44098-3 0  9992
2 43694  85.0287 334.7815 0015584 229.9607 130.0270 15.25870988194995
PROXIMA II              
1 43696U 18088G   22135.80596358  .00011123  00000+0  43159-3 0  9992
2 43696  85.0286 334.7982 0015633 229.7248 130.2630 15.25853752194986
